YAOGAN-30 06C           
1 44451U 19045C   26068.85043463  .00004352  00000+0  32596-3 0  9993
2 44451  34.9925 214.7382 0001081 261.6749  98.3837 15.02172666361604
STARLINK-34931          
1 65398U 25191V   26068.60381390  .00004571  00000+0  32075-3 0  9997
2 65398  97.6023 301.3987 0001800  83.4810 276.6621 15.05652052 30255
